NORAD_CAT_ID,OBJECT_NAME,OBJECT_TYPE,EPOCH,MEAN_MOTION,ECCENTRICITY,INCLINATION,RA_OF_ASC_NODE,ARG_OF_PERICENTER,MEAN_ANOMALY,BSTAR,MEAN_MOTION_DOT,MEAN_MOTION_DDOT,TLE_LINE0,TLE_LINE1,TLE_LINE2,SEMIMAJOR_AXIS,PERIOD,APOGEE,PERIGEE,DECAYED
53794.0,STARLINK-4730,PAYLOAD,2024-04-11 21:06:49,15.08834878,0.0001462,53.2178,162.0721,82.9432,277.1726,1.9356e-05,2e-07,0.0,0 STARLINK-4730,1 53794U 22111X   24102.87973724  .00000020  00000-0  19356-4 0  9991,2 53794  53.2178 162.0721 0001462  82.9432 277.1726 15.08834878 87690,6917.896,95.438,540.772,538.75,0.0
53794.0,STARLINK-4730,PAYLOAD,2024-04-12 11:25:16,15.0884581,0.0001418,53.2174,159.3952,86.2149,273.9005,8.3233e-05,1.037e-05,0.0,0 STARLINK-4730,1 53794U 22111X   24103.47589008  .00001037  00000-0  83233-4 0  9990,2 53794  53.2174 159.3952 0001418  86.2149 273.9005 15.08845810 87786,6917.863,95.437,540.709,538.747,0.0
53794.0,STARLINK-4730,PAYLOAD,2024-04-13 03:19:08,15.08837966,0.0001476,53.2171,156.4227,81.4255,278.6904,0.00020632,2.997e-05,0.0,0 STARLINK-4730,1 53794U 22111X   24104.13829250  .00002997  00000-0  20632-3 0  9999,2 53794  53.2171 156.4227 0001476  81.4255 278.6904 15.08837966 87889,6917.887,95.438,540.773,538.731,0.0
53794.0,STARLINK-4730,PAYLOAD,2024-04-13 09:40:40,15.08843599,0.0001427,53.2168,155.2325,82.3913,277.7241,0.00018505,2.659e-05,0.0,0 STARLINK-4730,1 53794U 22111X   24104.40325164  .00002659  00000-0  18505-3 0  9995,2 53794  53.2168 155.2325 0001427  82.3913 277.7241 15.08843599 88725,6917.869,95.437,540.722,538.747,0.0
53794.0,STARLINK-4730,PAYLOAD,2024-04-14 09:31:27,15.08847455,0.0001544,53.216,150.7725,76.2032,283.9132,5.8188e-05,6.38e-06,0.0,0 STARLINK-4730,1 53794U 22111X   24105.39685141  .00000638  00000-0  58188-4 0  9995,2 53794  53.2160 150.7725 0001544  76.2032 283.9132 15.08847455 88076,6917.858,95.437,540.791,538.654,0.0
53794.0,STARLINK-4730,PAYLOAD,2024-04-15 12:33:01,15.08843819,0.0001797,53.2175,145.7143,115.4363,244.6815,4.6387e-05,4.5e-06,0.0,0 STARLINK-4730,1 53794U 22111X   24106.52292962  .00000450  00000-0  46387-4 0  9996,2 53794  53.2175 145.7143 0001797 115.4363 244.6815 15.08843819 88244,6917.869,95.437,540.977,538.491,0.0
53794.0,STARLINK-4730,PAYLOAD,2024-04-16 09:13:01,15.08846427,0.0001652,53.2172,141.847,108.0068,252.1104,0.00011677,1.571e-05,0.0,0 STARLINK-4730,1 53794U 22111X   24107.38404704  .00001571  00000-0  11677-3 0  9998,2 53794  53.2172 141.8470 0001652 108.0068 252.1104 15.08846427 89177,6917.861,95.437,540.869,538.583,0.0
53794.0,STARLINK-4730,PAYLOAD,2024-04-17 01:06:52,15.08843793,0.0001583,53.2172,138.8793,115.8247,244.2908,0.00017319,2.47e-05,0.0,0 STARLINK-4730,1 53794U 22111X   24108.04644646  .00002470  00000-0  17319-3 0  9991,2 53794  53.2172 138.8793 0001583 115.8247 244.2908 15.08843793 88478,6917.869,95.437,540.829,538.639,0.0
53794.0,STARLINK-4730,PAYLOAD,2024-04-17 07:28:25,15.08843643,0.0001417,53.2163,137.6878,99.9309,260.1843,1.7086e-05,-1.6e-07,0.0,0 STARLINK-4730,1 53794U 22111X   24108.31140903 -.00000016  00000-0  17086-4 0  9995,2 53794  53.2163 137.6878 0001417  99.9309 260.1843 15.08843643 89319,6917.869,95.437,540.715,538.754,0.0
53794.0,STARLINK-4730,PAYLOAD,2024-04-18 02:33:04,15.08829504,0.0001536,53.2187,134.1179,88.9962,271.1206,-6.0199e-05,-1.246e-05,0.0,0 STARLINK-4730,1 53794U 22111X   24109.10630695 -.00001246  00000-0 -60199-4 0  9995,2 53794  53.2187 134.1179 0001536  88.9962 271.1206 15.08829504 88635,6917.912,95.438,540.84,538.715,0.0
53794.0,STARLINK-4730,PAYLOAD,2024-04-18 08:54:37,15.08825733,0.0001412,53.2173,132.9294,90.3413,269.7741,-9.6099e-05,-1.816e-05,0.0,0 STARLINK-4730,1 53794U 22111X   24109.37127177 -.00001816  00000-0 -96099-4 0  9991,2 53794  53.2173 132.9294 0001412  90.3413 269.7741 15.08825733 89475,6917.924,95.438,540.766,538.812,0.0
53794.0,STARLINK-4730,PAYLOAD,2024-04-19 10:20:46,15.0884814,0.0001525,53.2169,128.1674,95.5119,264.6047,0.00011217,1.498e-05,0.0,0 STARLINK-4730,1 53794U 22111X   24110.43109549  .00001498  00000-0  11217-3 0  9995,2 53794  53.2169 128.1674 0001525  95.5119 264.6047 15.08848140 88833,6917.856,95.437,540.775,538.666,0.0
53794.0,STARLINK-4730,PAYLOAD,2024-04-20 05:25:25,15.08836889,0.0001583,53.2173,124.5985,92.4838,267.6335,0.00017048,2.426e-05,0.0,0 STARLINK-4730,1 53794U 22111X   24111.22598380  .00002426  00000-0  17048-3 0  9998,2 53794  53.2173 124.5985 0001583  92.4838 267.6335 15.08836889 88954,6917.89,95.438,540.85,538.66,0.0
53794.0,STARLINK-4730,PAYLOAD,2024-04-20 08:36:11,15.08828196,0.0001707,53.2185,124.0028,89.4806,270.6382,0.00039796,6.049e-05,0.0,0 STARLINK-4730,1 53794U 22111X   24111.35846425  .00006049  00000-0  39796-3 0  9997,2 53794  53.2185 124.0028 0001707  89.4806 270.6382 15.08828196 89778,6917.916,95.438,540.962,538.601,0.0
53794.0,STARLINK-4730,PAYLOAD,2024-04-21 00:30:03,15.08836475,0.0001611,53.218,121.0337,93.1301,266.9876,-7.0821e-05,-1.415e-05,0.0,0 STARLINK-4730,1 53794U 22111X   24112.02087432 -.00001415  00000-0 -70821-4 0  9996,2 53794  53.2180 121.0337 0001611  93.1301 266.9876 15.08836475 89077,6917.891,95.438,540.871,538.642,0.0
53794.0,STARLINK-4730,PAYLOAD,2024-04-21 10:02:22,15.08830966,0.0001555,53.2187,119.2474,96.3356,263.7813,-0.00010302,-1.927e-05,0.0,0 STARLINK-4730,1 53794U 22111X   24112.41831997 -.00001927  00000-0 -10302-3 0  9997,2 53794  53.2187 119.2474 0001555  96.3356 263.7813 15.08830966 89937,6917.908,95.438,540.849,538.697,0.0
53794.0,STARLINK-4730,PAYLOAD,2024-04-22 05:06:59,15.08846395,0.0001916,53.2186,115.6863,58.1642,301.9537,3.429e-06,-2.34e-06,0.0,0 STARLINK-4730,1 53794U 22111X   24113.21318998 -.00000234  00000-0  34290-5 0  9990,2 53794  53.2186 115.6863 0001916  58.1642 301.9537 15.08846395 89259,6917.861,95.437,541.051,538.4,0.0
53794.0,STARLINK-4730,PAYLOAD,2024-04-22 06:42:22,15.08855821,0.0001464,53.2188,115.3834,96.6121,263.5038,2e-05,3e-07,0.0,0 STARLINK-4730,1 53794U 22111X   24113.27942161  .00000030  00000-0  20000-4 0  9997,2 53794  53.2188 115.3834 0001464  96.6121 263.5038 15.08855821 89267,6917.832,95.437,540.71,538.684,0.0
53794.0,STARLINK-4730,PAYLOAD,2024-04-23 04:57:46,15.0883495,0.0001595,53.2187,111.2192,114.3524,245.7635,0.00016273,2.302e-05,0.0,0 STARLINK-4730,1 53794U 22111X   24114.20678963  .00002302  00000-0  16273-3 0  9997,2 53794  53.2187 111.2192 0001595 114.3524 245.7635 15.08834950 89409,6917.896,95.438,540.864,538.657,0.0
53794.0,STARLINK-4730,PAYLOAD,2024-04-23 06:33:09,15.08832775,0.0001457,53.2187,110.923,103.0899,257.0255,0.00015915,2.245e-05,0.0,0 STARLINK-4730,1 53794U 22111X   24114.27303151  .00002245  00000-0  15915-3 0  9996,2 53794  53.2187 110.9230 0001457 103.0899 257.0255 15.08832775 90213,6917.902,95.438,540.775,538.76,0.0
53794.0,STARLINK-4730,PAYLOAD,2024-04-24 09:34:42,15.08850954,0.0001491,53.218,105.8664,111.1134,249.0018,5.7267e-05,6.24e-06,0.0,0 STARLINK-4730,1 53794U 22111X   24115.39910029  .00000624  00000-0  57267-4 0  9994,2 53794  53.2180 105.8664 0001491 111.1134 249.0018 15.08850954 89585,6917.847,95.437,540.743,538.68,0.0
53794.0,STARLINK-4730,PAYLOAD,2024-04-25 04:39:20,15.08838347,0.0001332,53.2177,102.2939,99.5753,260.539,-2.7393e-05,-7.24e-06,0.0,0 STARLINK-4730,1 53794U 22111X   24116.19399080 -.00000724  00000-0 -27393-4 0  9991,2 53794  53.2177 102.2939 0001332  99.5753 260.5390 15.08838347 89704,6917.885,95.438,540.672,538.829,0.0
53794.0,STARLINK-4730,PAYLOAD,2024-04-25 07:50:06,15.08840152,0.0001476,53.2183,101.6989,108.9512,251.164,-1.1089e-05,-4.64e-06,0.0,0 STARLINK-4730,1 53794U 22111X   24116.32646909 -.00000464  00000-0 -11089-4 0  9997,2 53794  53.2183 101.6989 0001476 108.9512 251.1640 15.08840152 90529,6917.88,95.438,540.766,538.724,0.0
53794.0,STARLINK-4730,PAYLOAD,2024-04-26 07:40:53,15.08847772,0.0001488,53.2184,97.2386,108.0552,252.0602,6.8751e-05,8.07e-06,0.0,0 STARLINK-4730,1 53794U 22111X   24117.32006221  .00000807  00000-0  68751-4 0  9992,2 53794  53.2184  97.2386 0001488 108.0552 252.0602 15.08847772 89878,6917.857,95.437,540.751,538.692,0.0
53794.0,STARLINK-4730,PAYLOAD,2024-04-26 15:37:49,15.08845629,0.0001516,53.2188,95.7557,82.2186,277.8978,1.0846e-05,-1.15e-06,0.0,0 STARLINK-4730,1 53794U 22111X   24117.65126546 -.00000115  00000-0  10846-4 0  9996,2 53794  53.2188  95.7557 0001516  82.2186 277.8978 15.08845629 90729,6917.863,95.437,540.777,538.679,0.0
53794.0,STARLINK-4730,PAYLOAD,2024-04-27 05:56:16,15.08851277,0.0001421,53.2176,93.0823,83.8221,276.2933,0.00015391,2.163e-05,0.0,0 STARLINK-4730,1 53794U 22111X   24118.24741750  .00002163  00000-0  15391-3 0  9995,2 53794  53.2176  93.0823 0001421  83.8221 276.2933 15.08851277 90815,6917.846,95.437,540.694,538.728,0.0
53794.0,STARLINK-4730,PAYLOAD,2024-04-27 15:28:36,15.08840556,0.0001388,53.2187,91.2973,87.758,272.3571,4.242e-05,3.87e-06,0.0,0 STARLINK-4730,1 53794U 22111X   24118.64486553  .00000387  00000-0  42420-4 0  9996,2 53794  53.2187  91.2973 0001388  87.7580 272.3571 15.08840556 90077,6917.879,95.438,540.704,538.783,0.0
53794.0,STARLINK-4730,PAYLOAD,2024-04-28 04:11:42,15.0883148,0.0001213,53.216,88.9177,116.9697,243.1419,-0.00014228,-2.551e-05,0.0,0 STARLINK-4730,1 53794U 22111X   24119.17479832 -.00002551  00000-0 -14228-3 0  9998,2 53794  53.2160  88.9177 0001213 116.9697 243.1419 15.08831480 90150,6917.906,95.438,540.611,538.932,0.0
53794.0,STARLINK-4730,PAYLOAD,2024-04-28 07:22:28,15.08835752,0.0001324,53.2172,88.321,112.5291,247.5841,-9.6176e-05,-1.818e-05,0.0,0 STARLINK-4730,1 53794U 22111X   24119.30727487 -.00001818  00000-0 -96176-4 0  9993,2 53794  53.2172  88.3210 0001324 112.5291 247.5841 15.08835752 90973,6917.893,95.438,540.674,538.842,0.0
53794.0,STARLINK-4730,PAYLOAD,2024-04-29 04:02:28,15.08844564,0.0001369,53.2173,84.4552,103.6022,256.5123,-7.8778e-05,-1.542e-05,0.0,0 STARLINK-4730,1 53794U 22111X   24120.16839113 -.00001542  00000-0 -78778-4 0  9991,2 53794  53.2173  84.4552 0001369 103.6022 256.5123 15.08844564 90303,6917.866,95.437,540.678,538.784,0.0
